NORAD_CAT_ID,OBJECT_NAME,OBJECT_TYPE,EPOCH,MEAN_MOTION,ECCENTRICITY,INCLINATION,RA_OF_ASC_NODE,ARG_OF_PERICENTER,MEAN_ANOMALY,BSTAR,MEAN_MOTION_DOT,MEAN_MOTION_DDOT,TLE_LINE0,TLE_LINE1,TLE_LINE2,SEMIMAJOR_AXIS,PERIOD,APOGEE,PERIGEE,DECAYED
54185.0,STARLINK-5235,PAYLOAD,2023-02-05 08:55:07,15.0884339,0.0001341,53.2176,29.0689,94.0418,266.0728,7.3433e-05,8.81e-06,0.0,0 STARLINK-5235,1 54185U 22141AE  23036.37161304  .00000881  00000-0  73433-4 0  9993,2 54185  53.2176  29.0689 0001341  94.0418 266.0728 15.08843390 15523,6917.87,95.437,540.663,538.807,0.0
54185.0,STARLINK-5235,PAYLOAD,2023-02-06 02:24:21,15.0884567,0.0001287,53.2169,25.7987,94.1476,265.9663,2.4496e-05,1.02e-06,0.0,0 STARLINK-5235,1 54185U 22141AE  23037.10025313  .00000102  00000-0  24496-4 0  9995,2 54185  53.2169  25.7987 0001287  94.1476 265.9663 15.08845670 15869,6917.863,95.437,540.618,538.838,0.0
54185.0,STARLINK-5235,PAYLOAD,2023-02-06 08:45:53,15.08853233,0.0001324,53.2174,24.6082,100.669,259.4451,7.8999e-05,9.7e-06,0.0,0 STARLINK-5235,1 54185U 22141AE  23037.36520584  .00000970  00000-0  78999-4 0  9993,2 54185  53.2174  24.6082 0001324 100.6690 259.4451 15.08853233 15904,6917.84,95.437,540.621,538.789,0.0
54185.0,STARLINK-5235,PAYLOAD,2023-02-07 03:50:31,15.08847109,0.0001351,53.2175,21.0397,99.5394,260.5751,0.00010052,1.313e-05,0.0,0 STARLINK-5235,1 54185U 22141AE  23038.16008961  .00001313  00000-0  10052-3 0  9999,2 54185  53.2175  21.0397 0001351  99.5394 260.5751 15.08847109 16027,6917.859,95.437,540.658,538.789,0.0
54185.0,STARLINK-5235,PAYLOAD,2023-02-07 08:36:40,15.08852623,0.0001249,53.2179,20.1488,86.9704,273.1432,0.00015243,2.14e-05,0.0,0 STARLINK-5235,1 54185U 22141AE  23038.35880548  .00002140  00000-0  15243-3 0  9995,2 54185  53.2179  20.1488 0001249  86.9704 273.1432 15.08852623 15823,6917.842,95.437,540.571,538.843,0.0
54185.0,STARLINK-5235,PAYLOAD,2023-02-08 03:41:19,15.08843265,0.0001228,53.2176,16.5798,86.3296,273.7837,3.2937e-05,2.36e-06,0.0,0 STARLINK-5235,1 54185U 22141AE  23039.15369244  .00000236  00000-0  32937-4 0  9993,2 54185  53.2176  16.5798 0001228  86.3296 273.7837 15.08843265 16176,6917.87,95.437,540.585,538.886,0.0
54185.0,STARLINK-5235,PAYLOAD,2023-02-08 08:27:27,15.08853591,0.0001247,53.2183,15.6876,84.4464,275.667,0.00017392,2.482e-05,0.0,0 STARLINK-5235,1 54185U 22141AE  23039.35240638  .00002482  00000-0  17392-3 0  9992,2 54185  53.2183  15.6876 0001247  84.4464 275.6670 15.08853591 16201,6917.839,95.437,540.567,538.841,0.0
54185.0,STARLINK-5235,PAYLOAD,2023-02-09 03:32:06,15.08837003,0.0001314,53.2197,12.1236,106.1953,253.9184,-8.2389e-06,-4.19e-06,0.0,0 STARLINK-5235,1 54185U 22141AE  23040.14729619 -.00000419  00000-0 -82389-5 0  9992,2 54185  53.2197  12.1236 0001314 106.1953 253.9184 15.08837003 16320,6917.89,95.438,540.664,538.846,0.0
54185.0,STARLINK-5235,PAYLOAD,2023-02-09 08:18:15,15.088506,0.0001187,53.2179,11.2276,111.3873,248.7246,0.0002935,4.388e-05,0.0,0 STARLINK-5235,1 54185U 22141AE  23040.34601038  .00004388  00000-0  29350-3 0  9992,2 54185  53.2179  11.2276 0001187 111.3873 248.7246 15.08850600 16128,6917.848,95.437,540.534,538.892,0.0
54185.0,STARLINK-5235,PAYLOAD,2023-02-09 14:39:48,15.08840953,0.0001298,53.2178,10.0373,108.5298,251.5835,0.00022678,3.323e-05,0.0,0 STARLINK-5235,1 54185U 22141AE  23040.61097549  .00003323  00000-0  22678-3 0  9992,2 54185  53.2178  10.0373 0001298 108.5298 251.5835 15.08840953 16164,6917.877,95.437,540.64,538.845,0.0
54185.0,STARLINK-5235,PAYLOAD,2023-02-10 01:47:30,15.0883057,0.0001304,53.2188,7.9599,107.0671,253.0464,-1.5491e-05,-5.34e-06,0.0,0 STARLINK-5235,1 54185U 22141AE  23041.07465988 -.00000534  00000-0 -15491-4 0  9998,2 54185  53.2188   7.9599 0001304 107.0671 253.0464 15.08830570 16234,6917.909,95.438,540.676,538.872,0.0
54185.0,STARLINK-5235,PAYLOAD,2023-02-10 04:58:16,15.0884512,0.000118,53.2186,7.3639,112.6883,247.4234,0.00036502,5.527e-05,0.0,0 STARLINK-5235,1 54185U 22141AE  23041.20713617  .00005527  00000-0  36502-3 0  9998,2 54185  53.2186   7.3639 0001180 112.6883 247.4234 15.08845120 16486,6917.865,95.437,540.546,538.913,0.0
54185.0,STARLINK-5235,PAYLOAD,2023-02-11 03:13:40,15.08849777,0.0001318,53.2181,3.1992,88.9241,271.1902,0.00023439,3.445e-05,0.0,0 STARLINK-5235,1 54185U 22141AE  23042.13449627  .00003445  00000-0  23439-3 0  9990,2 54185  53.2181   3.1992 0001318  88.9241 271.1902 15.08849777 16627,6917.851,95.437,540.627,538.804,0.0
54185.0,STARLINK-5235,PAYLOAD,2023-02-11 04:49:03,15.08863921,0.0001032,53.2181,2.9017,100.871,259.2398,0.00049681,7.633e-05,0.0,0 STARLINK-5235,1 54185U 22141AE  23042.20072920  .00007633  00000-0  49681-3 0  9996,2 54185  53.2181   2.9017 0001032 100.8710 259.2398 15.08863921 16409,6917.807,95.436,540.386,538.958,0.0
54185.0,STARLINK-5235,PAYLOAD,2023-02-11 20:42:55,15.08841892,0.0001342,53.219,359.9309,79.4711,280.6433,0.00015475,2.176e-05,0.0,0 STARLINK-5235,1 54185U 22141AE  23042.86313921  .00002176  00000-0  15475-3 0  9998,2 54185  53.2190 359.9309 0001342  79.4711 280.6433 15.08841892 16506,6917.875,95.437,540.668,538.811,0.0
54185.0,STARLINK-5235,PAYLOAD,2023-02-12 03:04:27,15.08842595,9.58e-05,53.2171,358.7377,95.2676,264.8425,0.00015861,2.238e-05,0.0,0 STARLINK-5235,1 54185U 22141AE  23043.12809763  .00002238  00000-0  15861-3 0  9990,2 54185  53.2171 358.7377 0000958  95.2676 264.8425 15.08842595 16770,6917.872,95.437,540.4,539.075,0.0
54185.0,STARLINK-5235,PAYLOAD,2023-02-12 14:12:09,15.08846768,9.52e-05,53.2176,356.6576,80.4029,279.707,0.00013868,1.92e-05,0.0,0 STARLINK-5235,1 54185U 22141AE  23043.59177551  .00001920  00000-0  13868-3 0  9996,2 54185  53.2176 356.6576 0000952  80.4029 279.7070 15.08846768 16615,6917.86,95.437,540.383,539.066,0.0
54185.0,STARLINK-5235,PAYLOAD,2023-02-12 17:22:56,15.08823389,0.0001191,53.2173,356.0654,79.0879,281.0248,-0.00028528,-4.823e-05,0.0,0 STARLINK-5235,1 54185U 22141AE  23043.72426598 -.00004823  00000-0 -28528-3 0  9995,2 54185  53.2173 356.0654 0001191  79.0879 281.0248 15.08823389 16860,6917.931,95.439,540.62,538.972,0.0
54185.0,STARLINK-5235,PAYLOAD,2023-02-13 02:55:15,15.08835599,9.88e-05,53.2177,354.2774,105.2906,254.8195,6.0404e-05,6.74e-06,0.0,0 STARLINK-5235,1 54185U 22141AE  23044.12170177  .00000674  00000-0  60404-4 0  9997,2 54185  53.2177 354.2774 0000988 105.2906 254.8195 15.08835599 16925,6917.894,95.438,540.442,539.075,0.0
54185.0,STARLINK-5235,PAYLOAD,2023-02-13 06:06:00,15.08850847,0.0001058,53.2171,353.6834,91.7543,268.3571,0.00050033,7.686e-05,0.0,0 STARLINK-5235,1 54185U 22141AE  23044.25417689  .00007686  00000-0  50033-3 0  9999,2 54185  53.2171 353.6834 0001058  91.7543 268.3571 15.08850847 16947,6917.847,95.437,540.444,538.98,0.0
54185.0,STARLINK-5235,PAYLOAD,2023-02-13 14:02:57,15.08826178,0.0001697,53.218,352.1971,81.6287,278.4898,0.00021424,3.122e-05,0.0,0 STARLINK-5235,1 54185U 22141AE  23044.58539069  .00003122  00000-0  21424-3 0  9995,2 54185  53.2180 352.1971 0001697  81.6287 278.4898 15.08826178 16769,6917.923,95.438,540.962,538.614,0.0
54185.0,STARLINK-5235,PAYLOAD,2023-02-13 17:13:43,15.08829349,9.43e-05,53.2173,351.6021,88.1885,271.9216,9.445e-05,1.215e-05,0.0,0 STARLINK-5235,1 54185U 22141AE  23044.71786777  .00001215  00000-0  94450-4 0  9991,2 54185  53.2173 351.6021 0000943  88.1885 271.9216 15.08829349 17014,6917.913,95.438,540.43,539.126,0.0
54185.0,STARLINK-5235,PAYLOAD,2023-02-14 02:46:02,15.08845296,0.0001011,53.2172,349.8198,79.2923,280.8183,0.00070754,0.00010992,0.0,0 STARLINK-5235,1 54185U 22141AE  23045.11530845  .00010992  00000-0  70754-3 0  9991,2 54185  53.2172 349.8198 0001011  79.2923 280.8183 15.08845296 17075,6917.864,95.437,540.429,539.03,0.0
54185.0,STARLINK-5235,PAYLOAD,2023-02-14 07:32:11,15.08868084,0.0001138,53.2172,348.9278,73.2371,286.8746,0.0022096,0.0003508,0.0,0 STARLINK-5235,1 54185U 22141AE  23045.31402599  .00035080  00000-0  22096-2 0  9997,2 54185  53.2172 348.9278 0001138  73.2371 286.8746 15.08868084 17100,6917.795,95.436,540.447,538.872,0.0
54185.0,STARLINK-5235,PAYLOAD,2023-02-15 02:36:49,15.08865378,8.82e-05,53.2169,345.3575,91.2808,268.8285,0.0022373,0.00035523,0.0,0 STARLINK-5235,1 54185U 22141AE  23046.10890848  .00035523  00000-0  22373-2 0  9993,2 54185  53.2169 345.3575 0000882  91.2808 268.8285 15.08865378 17221,6917.803,95.436,540.278,539.058,0.0
54185.0,STARLINK-5235,PAYLOAD,2023-02-16 00:52:13,15.08897087,9.11e-05,53.2178,341.1954,73.305,286.8042,0.0034381,0.00054942,0.0,0 STARLINK-5235,1 54185U 22141AE  23047.03626400  .00054942  00000-0  34381-2 0  9995,2 54185  53.2178 341.1954 0000911  73.3050 286.8042 15.08897087 17367,6917.706,95.434,540.201,538.941,0.0
54185.0,STARLINK-5235,PAYLOAD,2023-02-16 11:59:55,15.08874769,0.0001259,53.2179,339.1135,80.1144,279.999,0.0016855,0.00026664,0.0,0 STARLINK-5235,1 54185U 22141AE  23047.49994351  .00026664  00000-0  16855-2 0  9994,2 54185  53.2179 339.1135 0001259  80.1144 279.9990 15.08874769 17437,6917.774,95.435,540.51,538.768,0.0
54185.0,STARLINK-5235,PAYLOAD,2023-02-17 00:43:01,15.08825771,0.0001396,53.218,336.7357,104.3688,255.7459,0.0021469,0.00034032,0.0,0 STARLINK-5235,1 54185U 22141AE  23048.02987490  .00034032  00000-0  21469-2 0  9995,2 54185  53.2180 336.7357 0001396 104.3688 255.7459 15.08825771 17512,6917.924,95.438,540.755,538.823,0.0
54185.0,STARLINK-5235,PAYLOAD,2023-02-17 11:50:43,15.08836171,0.0001118,53.2178,334.6548,84.4301,275.6818,0.00096463,0.00015096,0.0,0 STARLINK-5235,1 54185U 22141AE  23048.49355911  .00015096  00000-0  96463-3 0  9999,2 54185  53.2178 334.6548 0001118  84.4301 275.6818 15.08836171 17358,6917.892,95.438,540.531,538.984,0.0
54185.0,STARLINK-5235,PAYLOAD,2023-02-18 00:33:49,15.08820114,0.000147,53.2181,332.277,91.0177,269.0983,0.00032875,4.945e-05,0.0,0 STARLINK-5235,1 54185U 22141AE  23049.02349042  .00004945  00000-0  32875-3 0  9995,2 54185  53.2181 332.2770 0001470  91.0177 269.0983 15.08820114 17663,6917.941,95.439,540.823,538.789,0.0
